[Satellite]
VERSION=1.1
NAME=GPS BIIRM-8 (PRN 05)
NICKNAME=GPS BIIRM-8 (PRN 05)
TLE1=1 35752U 09043A   22342.27929338 -.00000066  00000+0  00000+0 0  9995
TLE2=2 35752  55.2094  78.5395 0056480  64.4821 288.7831  2.00575165 97547
STATUS=0
